# FY3D (LEO)
1 43010U 17072A   25299.87033159  .00000174  00000+0  10398-3 0  9993
2 43010  98.9818 265.4949 0001848  29.7218 330.4062 14.19662116411889

# FY3E (LEO)
1 49008U 21062A   25299.88332920  .00000066  00000+0  51941-4 0  9999
2 49008  98.7484 300.9576 0002462  59.4350 300.7069 14.19870547223472

# FY3F (LEO)
1 57490U 23111A   25299.80021147  .00000117  00000+0  75775-4 0  9996
2 57490  98.7137   8.8391 0001369  81.8706 278.2625 14.19874967115746

# FY3G (LEO)
1 56232U 23055A   25299.88583606  .00035788  00000+0  57532-3 0  9999
2 56232  49.9934 109.0381 0020461 293.4840  66.3977 15.52375697143740

# C2E1 (LEO)
1 44349U 19036L   25299.81376980  .00004648  00000+0  35906-3 0  9999
2 44349  23.9965 166.8616 0001215 104.6901 255.3735 14.97958692349640

# C2E2 (LEO)
1 44351U 19036N   25299.32504844  .00004885  00000+0  37882-3 0  9998
2 44351  23.9993 286.5694 0001304 112.3600 247.7040 14.97945797348501

# C2E3 (LEO)
1 44343U 19036E   25299.77782547  .00007116  00000+0  43891-3 0  9993
2 44343  24.0007 342.1313 0000868  59.1090 300.9498 15.07169061347953

# C2E4 (LEO)
1 44350U 19036M   25299.83532911  .00005206  00000+0  40531-3 0  9992
2 44350  23.9984 228.8022 0001265 106.6378 253.4262 14.97948851349064

# C2E5 (LEO)
1 44358U 19036V   25299.63837897  .00004839  00000+0  37130-3 0  9991
2 44358  23.9999  44.0572 0001006  13.2140 346.8388 14.98314621347314

# C2E6 (LEO)
1 44353U 19036Q   25299.79152559  .00004810  00000+0  37267-3 0  9998
2 44353  23.9972 104.2400 0001666 119.7711 240.2956 14.97938935346807

# G01 (GNSS)
1 62339U 24242A   25299.51530042 -.00000077  00000+0  00000+0 0  9997
2 62339  54.9373 343.6552 0009694 342.0382  19.5735  2.00566970  6577

# G02 (GNSS)
1 28474U 04045A   25299.48745295 -.00000067  00000+0  00000+0 0  9991
2 28474  55.2628 334.3078 0169289 307.3464  65.6641  2.00567420153749

# G03 (GNSS)
1 40294U 14068A   25297.59791060 -.00000070  00000+0  00000+0 0  9996
2 40294  56.8228  40.0465 0061220  69.8875 290.7820  2.00561963 80485

# G04 (GNSS)
1 43873U 18109A   25299.69084233  .00000045  00000+0  00000+0 0  9993
2 43873  55.5392 101.4046 0036497 193.5168 180.0181  2.00552514 50394

# G05 (GNSS)
1 35752U 09043A   25299.78081516 -.00000064  00000+0  00000+0 0  9990
2 35752  56.0598  36.6348 0053306  82.2740 276.0869  2.00568576118677

# G06 (GNSS)
1 39741U 14026A   25298.62974264 -.00000075  00000+0  00000+0 0  9994
2 39741  56.6008 340.6490 0037474 316.9651  42.8032  2.00564888 83835

# G07 (GNSS)
1 32711U 08012A   25299.80789100  .00000044  00000+0  00000+0 0  9991
2 32711  54.4695 159.2472 0201043 244.5058 113.4880  2.00563510129073

# G08 (GNSS)
1 40730U 15033A   25299.38632976 -.00000006  00000+0  00000+0 0  9992
2 40730  54.1712 276.7203 0107990  25.7756 334.7481  2.00568067 75300

# G09 (GNSS)
1 40105U 14045A   25299.71674355  .00000040  00000+0  00000+0 0  9991
2 40105  55.1989  97.7747 0033319 118.4633 241.8794  2.00569745 81399

# G10 (GNSS)
1 41019U 15062A   25299.44527595 -.00000060  00000+0  00000+0 0  9992
2 41019  56.7998  39.8315 0109055 228.7487 130.3280  2.00567158 73144

# G11 (GNSS)
1 48859U 21054A   25289.21780060 -.00000094  00000+0  00000+0 0  9998
2 48859  55.2757 342.2645 0024064 230.1083 138.8203  2.00556506 31868

# G12 (GNSS)
1 29601U 06052A   25298.58608200  .00000010  00000+0  00000+0 0  9995
2 29601  54.9833 223.3084 0086191  87.0702 273.9431  2.00570508138708

# G13 (GNSS)
1 24876U 97035A   25297.87181406  .00000037  00000+0  00000+0 0  9999
2 24876  55.8700 107.7801 0096179  56.8662 304.0722  2.00563332207239

# G14 (GNSS)
1 46826U 20078A   25289.20312859 -.00000051  00000+0  00000+0 0  9994
2 46826  54.0306 220.6753 0063294 203.5880 326.5084  2.00567133 36612

# G15 (GNSS)
1 32260U 07047A   25298.89059002  .00000018  00000+0  00000+0 0  9997
2 32260  53.9210  89.7345 0164674  84.5254 277.3474  2.00566543132110

# G16 (GNSS)
1 27663U 03005A   25297.79477705  .00000010  00000+0  00000+0 0  9992
2 27663  54.9377 224.3241 0145242  51.1100 319.9420  2.00573623166598

# G17 (GNSS)
1 28874U 05038A   25299.02330343 -.00000010  00000+0  00000+0 0  9990
2 28874  55.0737 282.6215 0133627 292.3518  66.5536  2.00551470147148

# G18 (GNSS)
1 44506U 19056A   25299.56780675 -.00000072  00000+0  00000+0 0  9999
2 44506  55.7382 340.4273 0057502 197.2601 342.4394  2.00565063 45385

# G19 (GNSS)
1 28190U 04009A   25299.07169808 -.00000012  00000+0  00000+0 0  9991
2 28190  55.0280 285.1397 0107912 166.7361 206.9989  2.00562703158256

# G20 (GNSS)
1 26360U 00025A   25299.72310118 -.00000075  00000+0  00000+0 0  9995
2 26360  55.0184  28.7399 0038125 237.5883 111.0040  2.00571623186586

# G21 (GNSS)
1 64202U 25116A   25299.73809985 -.00000060  00000+0  00000+0 0  9990
2 64202  55.0719  40.5400 0003402 301.4979  51.7286  2.00561591  3188

# G22 (GNSS)
1 26407U 00040A   25299.71154441  .00000007  00000+0  00000+0 0  9992
2 26407  54.9042 224.4379 0128650 300.8586 239.1535  2.00567362185269

# G23 (GNSS)
1 45854U 20041A   25296.39836279 -.00000080  00000+0  00000+0 0  9991
2 45854  56.5118  38.1464 0059145 201.3504 154.5626  2.00563261 39285

# G24 (GNSS)
1 38833U 12053A   25298.98827169  .00000044  00000+0  00000+0 0  9998
2 38833  53.5486 153.1950 0173976  63.1707 298.6873  2.00564640 94743

# G25 (GNSS)
1 36585U 10022A   25295.29050880  .00000000  00000+0  00000+0 0  9995
2 36585  54.3118 218.1477 0123582  64.5098  52.3813  2.00550543112824

# G26 (GNSS)
1 40534U 15013A   25298.72603721  .00000010  00000+0  00000+0 0  9999
2 40534  53.2078 213.8778 0104639  37.2067 323.5586  2.00565449 77121

# G27 (GNSS)
1 39166U 13023A   25299.35050030 -.00000006  00000+0  00000+0 0  9992
2 39166  54.6925 278.4938 0135100  48.2143 312.9238  2.00565424 91197

# G28 (GNSS)
1 55268U 23009A   25299.36612330  .00000045  00000+0  00000+0 0  9998
2 55268  55.0995 157.7067 0003598 359.7404 178.2285  2.00559686 20557

# G29 (GNSS)
1 32384U 07062A   25299.45604976 -.00000008  00000+0  00000+0 0  9990
2 32384  55.2225 283.5419 0032282 163.7848  13.9998  2.00575086130825

# G30 (GNSS)
1 39533U 14008A   25299.34681831  .00000042  00000+0  00000+0 0  9991
2 39533  53.6232 158.8581 0078396 226.1536 133.2847  2.00571725 84997

# G31 (GNSS)
1 29486U 06042A   25298.41711322  .00000042  00000+0  00000+0 0  9992
2 29486  54.6880 160.6590 0107051  50.5940 133.6390  2.00555995139688

# G32 (GNSS)
1 41328U 16007A   25296.03699823  .00000019  00000+0  00000+0 0  9994
2 41328  55.3758  98.8688 0089834 242.6470 116.4457  2.00563434 71088

# C06 (GNSS)
1 36828U 10036A   25299.61308296 -.00000079  00000+0  00000+0 0  9994
2 36828  54.2771 165.0763 0050889 216.2614 340.9072  1.00290228 55756

# C04 (GNSS)
1 37210U 10057A   25299.79127816 -.00000099  00000+0  00000+0 0  9991
2 37210   3.0635  70.0709 0009637 177.5872 232.5704  1.00273918 54954

# C07 (GNSS)
1 37256U 10068A   25295.62146750 -.00000196  00000+0  00000+0 0  9997
2 37256  47.9774 274.7760 0047363 217.7614 226.5684  1.00248503 54417

# C14 (GNSS)
1 38775U 12050B   25297.10722026 -.00000026  00000+0  00000+0 0  9990
2 38775  56.3364  70.7135 0010474 353.5933   6.3747  1.86230993 88913

# C01 (GNSS)
1 44231U 19027A   25299.28870251 -.00000236  00000+0  00000+0 0  9993
2 44231   1.5372  74.5165 0007367 256.7206 312.0570  1.00267412 23739

# C24 (GNSS)
1 43582U 18062B   25299.39474123  .00000021  00000+0  00000+0 0  9990
2 43582  54.0900 190.2439 0006957  36.4023 323.7297  1.86229928 49288

# C26 (GNSS)
1 43602U 18067A   25296.64724316  .00000032  00000+0  00000+0 0  9997
2 43602  54.1842 189.0634 0008670  35.0726 325.0702  1.86227770 48715

# C25 (GNSS)
1 43603U 18067B   25298.92947094  .00000024  00000+0  00000+0 0  9992
2 43603  54.1813 188.9502 0005255  28.9976 331.1185  1.86227219 48788

# C32 (GNSS)
1 43622U 18072A   25298.88636387 -.00000011  00000+0  00000+0 0  9991
2 43622  56.4177  70.4043 0004261 306.1158  53.8319  1.86231084 48299

# C33 (GNSS)
1 43623U 18072B   25299.82574743 -.00000002  00000+0  00000+0 0  9994
2 43623  56.4210  70.3671 0002586   4.4354 355.5574  1.86231071 48301

# C35 (GNSS)
1 43647U 18078A   25297.29950454 -.00000055  00000+0  00000+0 0  9990
2 43647  54.3062 308.2498 0006200  17.7378 342.3061  1.86232431 47764

# C34 (GNSS)
1 43648U 18078B   25299.03953963 -.00000042  00000+0  00000+0 0  9999
2 43648  54.3003 308.1901 0002793  16.5386 343.4926  1.86232355 47810

# C59 (GNSS)
1 43683U 18085A   25299.78452222 -.00000265  00000+0  00000+0 0  9997
2 43683   2.9854 103.9091 0002876  12.5538 341.3569  1.00266924 25710

# C36 (GNSS)
1 43706U 18093A   25298.93864250  .00000023  00000+0  00000+0 0  9997
2 43706  54.1739 190.2452 0007453 301.5474 245.0422  1.86228418 47175

# C37 (GNSS)
1 43707U 18093B   25299.05856935  .00000023  00000+0  00000+0 0  9993
2 43707  54.1745 190.2328 0006881 339.3760  20.6815  1.86230098 47176

# C38 (GNSS)
1 44204U 19023A   25299.70322399 -.00000210  00000+0  00000+0 0  9993
2 44204  58.3679  40.0656 0026513 218.6559 146.9665  1.00259020  4873

# C39 (GNSS)
1 44337U 19035A   25299.57591045 -.00000086  00000+0  00000+0 0  9995
2 44337  55.2159 160.9179 0037273 202.3692 357.9401  1.00286236 23326

# C46 (GNSS)
1 44542U 19061A   25298.05619706  .00000027  00000+0  00000+0 0  9993
2 44542  54.4013 190.6596 0009221  15.2716 344.8415  1.86229469 41416

# C45 (GNSS)
1 44543U 19061B   25298.45739420  .00000025  00000+0  00000+0 0  9992
2 44543  54.3990 190.6145 0006558  25.9781 155.9110  1.86229590 41429

# C40 (GNSS)
1 44709U 19073A   25299.36335353 -.00000171  00000+0  00000+0 0  9990
2 44709  55.2058 283.4260 0045098 191.9450 167.9022  1.00257930 22111

# C44 (GNSS)
1 44793U 19078A   25298.97069858 -.00000043  00000+0  00000+0 0  9996
2 44793  54.1511 308.0624 0004873  22.6667 337.3765  1.86232203 40285

# C43 (GNSS)
1 44794U 19078B   25299.10727420 -.00000042  00000+0  00000+0 0  9998
2 44794  54.1244 308.0235 0003087   7.4621 352.5642  1.86227870 40292
